{"type": "FeatureCollection", "features": [{"type": "Feature", "geometry": {"type": "Point", "coordinates": [127.0059624, 37.5885141]}, "properties": {"name": "한성대입구", "name_en": "Hansung University", "operator": "서울교통공사", "ref": null}}, {"type": "Feature", "geometry": {"type": "Point", "coordinates": [126.9091539, 37.4187236]}, "properties": {"name": "관악", "name_en": "Gwanak", "operator": "한국철도공사", "ref": null}}, {"type": "Feature", "geometry": {"type": "Point", "coordinates": [127.0344672, 37.5783784]}, "properties": {"name": "제기동", "name_en": "Jegi-dong", "operator": "서울교통공사", "ref": null}}, {"type": "Feature", "geometry": {"type": "Point", "coordinates": [127.0672904, 37.6016378]}, "properties": {"name": "신이문", "name_en": "Sinimun", "operator": "한국철도공사", "ref": null}}, {"type": "Feature", "geometry": {"type": "Point", "coordinates": [127.0576239, 37.5894974]}, "properties": {"name": "회기", "name_en": "Hoegi", "operator": "한국철도공사", "ref": null}}, {"type": "Feature", "geometry": {"type": "Point", "coordinates": [127.0588653, 37.6330633]}, "properties": {"name": "월계", "name_en": "Wolgye", "operator": "한국철도공사", "ref": null}}, {"type": "Feature", "geometry": {"type": "Point", "coordinates": [127.0513984, 37.6446274]}, "properties": {"name": "녹천", "name_en": "Nokcheon", "operator": "한국철도공사", "ref": null}}, {"type": "Feature", "geometry": {"type": "Point", "coordinates": [127.0618193, 37.6236987]}, "properties": {"name": "광운대", "name_en": "Kwangwoon University", "operator": "한국철도공사", "ref": null}}, {"type": "Feature", "geometry": {"type": "Point", "coordinates": [127.047978, 37.6525981]}, "properties": {"name": "창동", "name_en": "Chang-Dong", "operator": "한국철도공사", "ref": null}}, {"type": "Feature", "geometry": {"type": "Point", "coordinates": [127.0443033, 37.6676904]}, "properties": {"name": "방학", "name_en": "Banghak", "operator": "한국철도공사", "ref": null}}, {"type": "Feature", "geometry": {"type": "Point", "coordinates": [126.8445367, 37.4943466]}, "properties": {"name": "오류동", "name_en": "Oryu-dong", "operator": "한국철도공사", "ref": null}}, {"type": "Feature", "geometry": {"type": "Point", "coordinates": [126.8587536, 37.4945934]}, "properties": {"name": "개봉", "name_en": "Gaebong", "operator": "한국철도공사", "ref": null}}, {"type": "Feature", "geometry": {"type": "Point", "coordinates": [126.8697062, 37.4962071]}, "properties": {"name": "구일", "name_en": "Guil", "operator": "한국철도공사", "ref": null}}, {"type": "Feature", "geometry": {"type": "Point", "coordinates": [126.7639671, 37.4867775]}, "properties": {"name": "중동", "name_en": "Jung-dong", "operator": "한국철도공사", "ref": null}}, {"type": "Feature", "geometry": {"type": "Point", "coordinates": [126.7528847, 37.4877038]}, "properties": {"name": "송내", "name_en": "Songnae", "operator": null, "ref": null}}, {"type": "Feature", "geometry": {"type": "Point", "coordinates": [126.7245591, 37.489454]}, "properties": {"name": "부평", "name_en": "Bupyeong", "operator": "한국철도공사", "ref": "152"}}, {"type": "Feature", "geometry": {"type": "Point", "coordinates": [126.7955903, 37.4827657]}, "properties": {"name": "소사", "name_en": null, "operator": "한국철도공사", "ref": null}}, {"type": "Feature", "geometry": {"type": "Point", "coordinates": [126.7827347, 37.4841098]}, "properties": {"name": "부천", "name_en": "Bucheon", "operator": "한국철도공사", "ref": null}}, {"type": "Feature", "geometry": {"type": "Point", "coordinates": [126.7071115, 37.4831229]}, "properties": {"name": "백운", "name_en": "Baegun", "operator": "한국철도공사", "ref": null}}, {"type": "Feature", "geometry": {"type": "Point", "coordinates": [126.7028769, 37.4710457]}, "properties": {"name": "동암", "name_en": "Dongam", "operator": "한국철도공사", "ref": null}}, {"type": "Feature", "geometry": {"type": "Point", "coordinates": [126.9969576, 37.4330744]}, "properties": {"name": "과천", "name_en": "Gwacheon", "operator": "한국철도공사", "ref": "438"}}, {"type": "Feature", "geometry": {"type": "Point", "coordinates": [127.0078955, 37.4437648]}, "properties": {"name": "경마공원", "name_en": "Seoul Racecourse Park", "operator": "한국철도공사", "ref": "436"}}, {"type": "Feature", "geometry": {"type": "Point", "coordinates": [127.0843766, 37.4836919]}, "properties": {"name": "일원", "name_en": "Ilwon", "operator": "서울교통공사", "ref": null}}, {"type": "Feature", "geometry": {"type": "Point", "coordinates": [127.015646, 37.5484516]}, "properties": {"name": "금호역", "name_en": "Geumho Station", "operator": null, "ref": null}}, {"type": "Feature", "geometry": {"type": "Point", "coordinates": [126.9179639, 37.5280157]}, "properties": {"name": "국회의사당", "name_en": "National Assembly", "operator": "서울시메트로9호선", "ref": null}}, {"type": "Feature", "geometry": {"type": "Point", "coordinates": [126.9535497, 37.5129744]}, "properties": {"name": "노들", "name_en": "Nodeul", "operator": "서울교통공사", "ref": "918"}}, {"type": "Feature", "geometry": {"type": "Point", "coordinates": [127.0246657, 37.5760544]}, "properties": {"name": "신설동", "name_en": "Sinseol-dong", "operator": "서울교통공사", "ref": "126"}}, {"type": "Feature", "geometry": {"type": "Point", "coordinates": [127.0508609, 37.56209]}, "properties": {"name": "용답", "name_en": "Yongdap", "operator": "서울교통공사", "ref": "211-1"}}, {"type": "Feature", "geometry": {"type": "Point", "coordinates": [127.1018399, 37.4874159]}, "properties": {"name": "수서", "name_en": "Suseo", "operator": "서울교통공사", "ref": "349"}}, {"type": "Feature", "geometry": {"type": "Point", "coordinates": [126.7358582, 37.5715012]}, "properties": {"name": "계양", "name_en": "Gyeyang", "operator": "인천교통공사", "ref": "I110"}}, {"type": "Feature", "geometry": {"type": "Point", "coordinates": [126.7426554, 37.5663544]}, "properties": {"name": "귤현", "name_en": "Gyulhyeon", "operator": "인천교통공사", "ref": "I111"}}, {"type": "Feature", "geometry": {"type": "Point", "coordinates": [126.7406058, 37.4884914]}, "properties": {"name": "부개", "name_en": "Bugae", "operator": "한국철도공사", "ref": null}}, {"type": "Feature", "geometry": {"type": "Point", "coordinates": [126.9629108, 37.5593715]}, "properties": {"name": "충정로", "name_en": "Chungjeongno", "operator": "서울교통공사", "ref": null}}, {"type": "Feature", "geometry": {"type": "Point", "coordinates": [126.7531743, 37.5058355]}, "properties": {"name": "상동", "name_en": "Sang-dong", "operator": "인천교통공사", "ref": null}}, {"type": "Feature", "geometry": {"type": "Point", "coordinates": [127.0020222, 37.5709867]}, "properties": {"name": "종로5가", "name_en": "Jongno 5(o)-ga", "operator": "서울교통공사", "ref": null}}, {"type": "Feature", "geometry": {"type": "Point", "coordinates": [127.0049777, 37.5050827]}, "properties": {"name": "고속터미널", "name_en": "Express Bus Terminal", "operator": "서울교통공사", "ref": null}}, {"type": "Feature", "geometry": {"type": "Point", "coordinates": [127.0602411, 37.5141869]}, "properties": {"name": "봉은사", "name_en": "Bongeunsa", "operator": "서울교통공사", "ref": "929"}}, {"type": "Feature", "geometry": {"type": "Point", "coordinates": [127.0338746, 37.507321]}, "properties": {"name": "언주", "name_en": "Eonju", "operator": "서울교통공사", "ref": "926"}}, {"type": "Feature", "geometry": {"type": "Point", "coordinates": [127.0534747, 37.5130955]}, "properties": {"name": "삼성중앙", "name_en": "Samseong Jungang", "operator": "서울시메트로9호선", "ref": "928"}}, {"type": "Feature", "geometry": {"type": "Point", "coordinates": [127.0151398, 37.5042952]}, "properties": {"name": "사평", "name_en": "Sapyeong", "operator": "서울시메트로9호선", "ref": "924"}}, {"type": "Feature", "geometry": {"type": "Point", "coordinates": [127.0438586, 37.510253]}, "properties": {"name": "선정릉", "name_en": "Seonjeongneung", "operator": "서울교통공사", "ref": "927"}}, {"type": "Feature", "geometry": {"type": "Point", "coordinates": [127.0245306, 37.5043224]}, "properties": {"name": "신논현", "name_en": "Sinnonhyeon", "operator": "서울교통공사;네오트랜스주식회사", "ref": null}}, {"type": "Feature", "geometry": {"type": "Point", "coordinates": [127.0637429, 37.5963062]}, "properties": {"name": "외대앞", "name_en": "Hankuk Univ. of Foreign Studies", "operator": "한국철도공사", "ref": null}}, {"type": "Feature", "geometry": {"type": "Point", "coordinates": [126.9867849, 37.5012899]}, "properties": {"name": "구반포", "name_en": "Gubanpo", "operator": "서울교통공사", "ref": "921"}}, {"type": "Feature", "geometry": {"type": "Point", "coordinates": [126.9639489, 37.5083823]}, "properties": {"name": "흑석", "name_en": "Heukseok", "operator": "서울시메트로9호선", "ref": "919"}}, {"type": "Feature", "geometry": {"type": "Point", "coordinates": [126.996418, 37.5036014]}, "properties": {"name": "신반포", "name_en": "Sinbanpo", "operator": "서울교통공사", "ref": "922"}}, {"type": "Feature", "geometry": {"type": "Point", "coordinates": [126.823534, 37.4922986]}, "properties": {"name": "온수", "name_en": "Onsu", "operator": "한국철도공사;서울교통공사", "ref": null}}, {"type": "Feature", "geometry": {"type": "Point", "coordinates": [127.0455468, 37.6792077]}, "properties": {"name": "도봉", "name_en": "Dobong", "operator": "한국철도공사", "ref": null}}, {"type": "Feature", "geometry": {"type": "Point", "coordinates": [127.0341455, 37.4844005]}, "properties": {"name": "양재", "name_en": "Yangjae", "operator": "서울교통공사", "ref": null}}, {"type": "Feature", "geometry": {"type": "Point", "coordinates": [127.1267127, 37.4705773]}, "properties": {"name": "복정", "name_en": "Bokjeong", "operator": "서울교통공사", "ref": "820"}}, {"type": "Feature", "geometry": {"type": "Point", "coordinates": [126.7596323, 37.4396565]}, "properties": {"name": "운연", "name_en": "Unyeon", "operator": "인천교통공사", "ref": null}}, {"type": "Feature", "geometry": {"type": "Point", "coordinates": [126.9023059, 37.4351332]}, "properties": {"name": "석수", "name_en": "Seoksu", "operator": "한국철도공사", "ref": null}}, {"type": "Feature", "geometry": {"type": "Point", "coordinates": [126.8894844, 37.4660736]}, "properties": {"name": "독산", "name_en": "Doksan", "operator": "한국철도공사", "ref": null}}, {"type": "Feature", "geometry": {"type": "Point", "coordinates": [126.9228826, 37.4016302]}, "properties": {"name": "안양", "name_en": "Anyang", "operator": "한국철도공사", "ref": null}}, {"type": "Feature", "geometry": {"type": "Point", "coordinates": [126.8939002, 37.4558132]}, "properties": {"name": "금천구청", "name_en": "Geumcheon-gu Office", "operator": "한국철도공사", "ref": "P144"}}, {"type": "Feature", "geometry": {"type": "Point", "coordinates": [127.1374318, 37.5570469]}, "properties": {"name": "암사역사공원", "name_en": "Amsa History Park", "operator": "서울교통공사", "ref": "808"}}, {"type": "Feature", "geometry": {"type": "Point", "coordinates": [127.0193736, 37.5852743]}, "properties": {"name": "보문", "name_en": "Bomun", "operator": "서울교통공사", "ref": null}}, {"type": "Feature", "geometry": {"type": "Point", "coordinates": [126.978203, 37.5029705]}, "properties": {"name": "동작", "name_en": "Dongjak", "operator": "서울교통공사", "ref": "920"}}, {"type": "Feature", "geometry": {"type": "Point", "coordinates": [127.0554679, 37.4909056]}, "properties": {"name": "도곡", "name_en": "Dogok", "operator": "서울교통공사", "ref": "344"}}, {"type": "Feature", "geometry": {"type": "Point", "coordinates": [126.8013934, 37.5619247]}, "properties": {"name": "김포공항", "name_en": "Gimpo Int'l Airport", "operator": "서울교통공사", "ref": null}}, {"type": "Feature", "geometry": {"type": "Point", "coordinates": [127.0081233, 37.5652615]}, "properties": {"name": "동대문역사문화공원", "name_en": "Dongdaemun History & Culture Park Station (DDP)", "operator": "서울교통공사", "ref": "422"}}, {"type": "Feature", "geometry": {"type": "Point", "coordinates": [126.8825086, 37.5034468]}, "properties": {"name": "구로", "name_en": "Guro", "operator": "한국철도공사", "ref": "141"}}, {"type": "Feature", "geometry": {"type": "Point", "coordinates": [127.0081741, 37.6121803]}, "properties": {"name": "북한산보국문", "name_en": "Bukhansan Bogungmun", "operator": "우이신설경전철운영(주)", "ref": "L09"}}, {"type": "Feature", "geometry": {"type": "Point", "coordinates": [126.9861709, 37.5768279]}, "properties": {"name": "안국", "name_en": "Anguk", "operator": "서울교통공사", "ref": "328"}}, {"type": "Feature", "geometry": {"type": "Point", "coordinates": [127.1757633, 37.5574822]}, "properties": {"name": "강일", "name_en": "Gangil", "operator": "서울교통공사", "ref": null}}, {"type": "Feature", "geometry": {"type": "Point", "coordinates": [127.1234021, 37.5385225]}, "properties": {"name": "천호", "name_en": "Cheonho", "operator": "서울교통공사", "ref": null}}, {"type": "Feature", "geometry": {"type": "Point", "coordinates": [126.7020849, 37.4572915]}, "properties": {"name": "인천시청", "name_en": "Incheon City Hall", "operator": "인천교통공사", "ref": "I124;I221"}}, {"type": "Feature", "geometry": {"type": "Point", "coordinates": [126.9330119, 37.4782105]}, "properties": {"name": "서원", "name_en": "Seowon", "operator": "로템SRS", "ref": null}}, {"type": "Feature", "geometry": {"type": "Point", "coordinates": [127.0114887, 37.5718616]}, "properties": {"name": "동대문", "name_en": "Dongdaemun", "operator": "서울교통공사", "ref": null}}, {"type": "Feature", "geometry": {"type": "Point", "coordinates": [126.9738885, 37.535478]}, "properties": {"name": "삼각지", "name_en": "Samgakji", "operator": "서울교통공사", "ref": "628"}}, {"type": "Feature", "geometry": {"type": "Point", "coordinates": [127.0460783, 37.6898359]}, "properties": {"name": "도봉산", "name_en": "Dobongsan", "operator": "한국철도공사", "ref": null}}, {"type": "Feature", "geometry": {"type": "Point", "coordinates": [127.0465716, 37.6891881]}, "properties": {"name": "도봉산", "name_en": "Dobongsan", "operator": "서울교통공사", "ref": null}}, {"type": "Feature", "geometry": {"type": "Point", "coordinates": [126.9069345, 37.515363]}, "properties": {"name": "영등포", "name_en": "Yeongdeungpo", "operator": "한국철도공사", "ref": "139"}}, {"type": "Feature", "geometry": {"type": "Point", "coordinates": [126.94204, 37.5142381]}, "properties": {"name": "노량진", "name_en": "Noryangjin", "operator": "한국철도공사", "ref": null}}, {"type": "Feature", "geometry": {"type": "Point", "coordinates": [126.9831831, 37.5701745]}, "properties": {"name": "종각", "name_en": "Jonggak", "operator": "서울교통공사", "ref": null}}, {"type": "Feature", "geometry": {"type": "Point", "coordinates": [127.0708644, 37.5404436]}, "properties": {"name": "건대입구", "name_en": "Konkuk Univ.", "operator": "서울교통공사", "ref": null}}, {"type": "Feature", "geometry": {"type": "Point", "coordinates": [126.9713213, 37.540538]}, "properties": {"name": "남영", "name_en": "Namyeong", "operator": "한국철도공사", "ref": "134"}}, {"type": "Feature", "geometry": {"type": "Point", "coordinates": [126.9264784, 37.5133577]}, "properties": {"name": "대방", "name_en": "Daebang", "operator": "한국철도공사", "ref": "102"}}, {"type": "Feature", "geometry": {"type": "Point", "coordinates": [126.9155283, 37.5984296]}, "properties": {"name": "응암", "name_en": "Eungam", "operator": "서울교통공사", "ref": null}}, {"type": "Feature", "geometry": {"type": "Point", "coordinates": [126.9136561, 37.5493558]}, "properties": {"name": "합정", "name_en": "Hapjeong", "operator": "서울교통공사", "ref": "238,622"}}, {"type": "Feature", "geometry": {"type": "Point", "coordinates": [127.0174344, 37.5735084]}, "properties": {"name": "동묘앞", "name_en": "Dongmyo", "operator": "서울교통공사", "ref": null}}, {"type": "Feature", "geometry": {"type": "Point", "coordinates": [127.0360133, 37.5903784]}, "properties": {"name": "고려대", "name_en": "Korea Univ.", "operator": "서울교통공사", "ref": null}}, {"type": "Feature", "geometry": {"type": "Point", "coordinates": [126.926908, 37.5573487]}, "properties": {"name": "홍대입구", "name_en": "Hongik Univ.", "operator": "한국철도공사;공항철도주식회사", "ref": "A03;K314"}}, {"type": "Feature", "geometry": {"type": "Point", "coordinates": [127.0489508, 37.5044746]}, "properties": {"name": "선릉", "name_en": "Seolleung", "operator": "서울교통공사", "ref": "220/K215"}}, {"type": "Feature", "geometry": {"type": "Point", "coordinates": [127.0412865, 37.5171756]}, "properties": {"name": "강남구청", "name_en": "Gangnam-gu Office", "operator": "서울교통공사", "ref": null}}, {"type": "Feature", "geometry": {"type": "Point", "coordinates": [127.1291547, 37.4337388]}, "properties": {"name": "모란", "name_en": "Moran", "operator": "한국철도공사", "ref": null}}, {"type": "Feature", "geometry": {"type": "Point", "coordinates": [127.0275574, 37.4979497]}, "properties": {"name": "강남", "name_en": "Gangnam", "operator": "서울교통공사", "ref": null}}, {"type": "Feature", "geometry": {"type": "Point", "coordinates": [127.1186382, 37.4925324]}, "properties": {"name": "가락시장", "name_en": "Garak Market", "operator": "한국철도공사", "ref": null}}, {"type": "Feature", "geometry": {"type": "Point", "coordinates": [126.9925305, 37.5663363]}, "properties": {"name": "을지로3가", "name_en": "Euljiro 3(sam)-ga", "operator": "서울교통공사", "ref": "203,330"}}, {"type": "Feature", "geometry": {"type": "Point", "coordinates": [126.9296307, 37.6108807]}, "properties": {"name": "불광", "name_en": "Bulgwang", "operator": "서울교통공사", "ref": null}}, {"type": "Feature", "geometry": {"type": "Point", "coordinates": [127.0862214, 37.5371676]}, "properties": {"name": "구의", "name_en": "Guui", "operator": "서울교통공사", "ref": null}}, {"type": "Feature", "geometry": {"type": "Point", "coordinates": [127.0947415, 37.5351109]}, "properties": {"name": "강변", "name_en": "Gangbyeon", "operator": "서울교통공사", "ref": "214"}}, {"type": "Feature", "geometry": {"type": "Point", "coordinates": [127.1038301, 37.520691]}, "properties": {"name": "잠실나루", "name_en": "Jamsillaru", "operator": "서울교통공사", "ref": "215"}}, {"type": "Feature", "geometry": {"type": "Point", "coordinates": [126.9941091, 37.5612019]}, "properties": {"name": "충무로", "name_en": "Chungmuro", "operator": "서울교통공사", "ref": null}}, {"type": "Feature", "geometry": {"type": "Point", "coordinates": [127.0103868, 37.5549186]}, "properties": {"name": "약수", "name_en": "Yaksu", "operator": "서울교통공사", "ref": null}}, {"type": "Feature", "geometry": {"type": "Point", "coordinates": [127.0137025, 37.4936592]}, "properties": {"name": "교대", "name_en": "Seoul Nat'l Univ. of Education", "operator": "서울교통공사", "ref": null}}, {"type": "Feature", "geometry": {"type": "Point", "coordinates": [127.1281525, 37.5019815]}, "properties": {"name": "오금", "name_en": "Ogeum", "operator": "서울교통공사", "ref": null}}, {"type": "Feature", "geometry": {"type": "Point", "coordinates": [127.0436642, 37.5557271]}, "properties": {"name": "한양대", "name_en": "Hanyang Univ.", "operator": "서울교통공사", "ref": "209"}}, {"type": "Feature", "geometry": {"type": "Point", "coordinates": [127.0561016, 37.5445688]}, "properties": {"name": "성수", "name_en": "Seongsu", "operator": "서울교통공사", "ref": "211"}}, {"type": "Feature", "geometry": {"type": "Point", "coordinates": [126.977114, 37.5654798]}, "properties": {"name": "시청", "name_en": "City Hall", "operator": "서울교통공사", "ref": "132;201"}}, {"type": "Feature", "geometry": {"type": "Point", "coordinates": [126.9826171, 37.5659494]}, "properties": {"name": "을지로입구", "name_en": "Euljiro 1(il)-ga", "operator": "서울교통공사", "ref": "202"}}, {"type": "Feature", "geometry": {"type": "Point", "coordinates": [126.9981685, 37.5666425]}, "properties": {"name": "을지로4가", "name_en": "Euljiro 4(sa)-ga", "operator": "서울교통공사", "ref": "204,535"}}, {"type": "Feature", "geometry": {"type": "Point", "coordinates": [127.016252, 37.5653839]}, "properties": {"name": "신당", "name_en": "Sindang", "operator": "서울교통공사", "ref": "206"}}, {"type": "Feature", "geometry": {"type": "Point", "coordinates": [127.0292513, 37.564391]}, "properties": {"name": "상왕십리", "name_en": "Sangwangsimni", "operator": "서울교통공사", "ref": "207"}}, {"type": "Feature", "geometry": {"type": "Point", "coordinates": [126.9369084, 37.5551517]}, "properties": {"name": "신촌", "name_en": "Sinchon", "operator": "서울교통공사", "ref": "240"}}, {"type": "Feature", "geometry": {"type": "Point", "coordinates": [126.9458346, 37.5567733]}, "properties": {"name": "이대", "name_en": "Ewha Womans Univ.", "operator": "서울교통공사", "ref": "241"}}, {"type": "Feature", "geometry": {"type": "Point", "coordinates": [126.9561209, 37.5574309]}, "properties": {"name": "아현", "name_en": "Ahyeon", "operator": "서울교통공사", "ref": "242"}}, {"type": "Feature", "geometry": {"type": "Point", "coordinates": [126.9139297, 37.6481183]}, "properties": {"name": "지축", "name_en": "Jichuk", "operator": "한국철도공사;서울교통공사", "ref": null}}, {"type": "Feature", "geometry": {"type": "Point", "coordinates": [126.8736684, 37.6505121]}, "properties": {"name": "원흥", "name_en": "Wonheung", "operator": "한국철도공사", "ref": null}}, {"type": "Feature", "geometry": {"type": "Point", "coordinates": [126.8428981, 37.6530498]}, "properties": {"name": "원당", "name_en": "Wondang", "operator": "한국철도공사", "ref": null}}, {"type": "Feature", "geometry": {"type": "Point", "coordinates": [126.832577, 37.6346457]}, "properties": {"name": "화정", "name_en": "Hwajeong", "operator": "한국철도공사", "ref": null}}, {"type": "Feature", "geometry": {"type": "Point", "coordinates": [126.8102838, 37.6317813]}, "properties": {"name": "대곡", "name_en": "Daegok", "operator": "한국철도공사", "ref": null}}, {"type": "Feature", "geometry": {"type": "Point", "coordinates": [126.7777596, 37.6520039]}, "properties": {"name": "마두", "name_en": "Madu", "operator": "한국철도공사", "ref": null}}, {"type": "Feature", "geometry": {"type": "Point", "coordinates": [126.7732651, 37.659711]}, "properties": {"name": "정발산", "name_en": "Jeongbalsan", "operator": "한국철도공사", "ref": "311"}}, {"type": "Feature", "geometry": {"type": "Point", "coordinates": [126.7474634, 37.6761753]}, "properties": {"name": "대화", "name_en": "Daehwa", "operator": "한국철도공사", "ref": "309"}}, {"type": "Feature", "geometry": {"type": "Point", "coordinates": [126.8954796, 37.6531194]}, "properties": {"name": "삼송", "name_en": "Samsong", "operator": "한국철도공사", "ref": null}}, {"type": "Feature", "geometry": {"type": "Point", "coordinates": [126.827917, 37.5662179]}, "properties": {"name": "마곡나루", "name_en": "Magongnaru", "operator": "서울시메트로9호선", "ref": null}}, {"type": "Feature", "geometry": {"type": "Point", "coordinates": [126.902478, 37.5345964]}, "properties": {"name": "당산", "name_en": "Dangsan", "operator": "서울교통공사", "ref": "237"}}, {"type": "Feature", "geometry": {"type": "Point", "coordinates": [126.8948726, 37.5183839]}, "properties": {"name": "문래", "name_en": "Mullae", "operator": "서울교통공사", "ref": "235"}}, {"type": "Feature", "geometry": {"type": "Point", "coordinates": [126.8912262, 37.5089397]}, "properties": {"name": "신도림", "name_en": "Sindorim", "operator": "서울교통공사", "ref": "234"}}, {"type": "Feature", "geometry": {"type": "Point", "coordinates": [126.9015916, 37.4852761]}, "properties": {"name": "구로디지털단지", "name_en": "Guro Digital Complex", "operator": "서울교통공사", "ref": "232"}}, {"type": "Feature", "geometry": {"type": "Point", "coordinates": [126.9133919, 37.4875949]}, "properties": {"name": "신대방", "name_en": "Sindaebang", "operator": "서울교통공사", "ref": "231"}}, {"type": "Feature", "geometry": {"type": "Point", "coordinates": [126.9296803, 37.4842316]}, "properties": {"name": "신림", "name_en": "Sillim", "operator": "서울교통공사", "ref": "230"}}, {"type": "Feature", "geometry": {"type": "Point", "coordinates": [126.9419387, 37.4823889]}, "properties": {"name": "봉천", "name_en": "Bongcheon", "operator": "서울교통공사", "ref": "229"}}, {"type": "Feature", "geometry": {"type": "Point", "coordinates": [126.9527151, 37.481223]}, "properties": {"name": "서울대입구", "name_en": "Seoul Nat'l Univ.", "operator": "서울교통공사", "ref": "228"}}, {"type": "Feature", "geometry": {"type": "Point", "coordinates": [126.9634876, 37.4770623]}, "properties": {"name": "낙성대", "name_en": "Nakseongdae", "operator": "서울교통공사", "ref": null}}, {"type": "Feature", "geometry": {"type": "Point", "coordinates": [126.9977072, 37.4814662]}, "properties": {"name": "방배", "name_en": "Bangbae", "operator": "서울교통공사", "ref": null}}, {"type": "Feature", "geometry": {"type": "Point", "coordinates": [127.007681, 37.4917747]}, "properties": {"name": "서초", "name_en": "Seocho", "operator": "서울교통공사", "ref": null}}, {"type": "Feature", "geometry": {"type": "Point", "coordinates": [127.03696, 37.5008221]}, "properties": {"name": "역삼", "name_en": "Yeoksam", "operator": "서울교통공사", "ref": "221"}}, {"type": "Feature", "geometry": {"type": "Point", "coordinates": [127.063143, 37.5088402]}, "properties": {"name": "삼성", "name_en": "Samseong", "operator": "서울교통공사", "ref": "219"}}, {"type": "Feature", "geometry": {"type": "Point", "coordinates": [127.0737204, 37.5110581]}, "properties": {"name": "종합운동장", "name_en": "Sports Complex", "operator": "서울교통공사", "ref": "218;930"}}, {"type": "Feature", "geometry": {"type": "Point", "coordinates": [127.085571, 37.5115881]}, "properties": {"name": "잠실새내", "name_en": "Jamsilsaenae", "operator": "서울교통공사", "ref": "217"}}, {"type": "Feature", "geometry": {"type": "Point", "coordinates": [127.1001365, 37.5132169]}, "properties": {"name": "잠실", "name_en": "Jamsil", "operator": "서울교통공사", "ref": "216"}}, {"type": "Feature", "geometry": {"type": "Point", "coordinates": [126.865945, 37.512295]}, "properties": {"name": "양천구청", "name_en": "Yangcheon-gu Office", "operator": "서울교통공사", "ref": "234-2"}}, {"type": "Feature", "geometry": {"type": "Point", "coordinates": [126.8530463, 37.5199831]}, "properties": {"name": "신정네거리", "name_en": "Sinjeongnegeori", "operator": "서울교통공사", "ref": "234-3"}}, {"type": "Feature", "geometry": {"type": "Point", "coordinates": [126.882684, 37.5144539]}, "properties": {"name": "도림천", "name_en": "Dorimcheon", "operator": "서울교통공사", "ref": "234-1"}}, {"type": "Feature", "geometry": {"type": "Point", "coordinates": [127.1239038, 37.495401]}, "properties": {"name": "경찰병원", "name_en": "National Police Hospital", "operator": "서울교통공사", "ref": null}}, {"type": "Feature", "geometry": {"type": "Point", "coordinates": [127.0795515, 37.4936283]}, "properties": {"name": "대청", "name_en": "Daecheong", "operator": "서울교통공사", "ref": null}}, {"type": "Feature", "geometry": {"type": "Point", "coordinates": [127.0698841, 37.4964975]}, "properties": {"name": "학여울", "name_en": "Hangnyeoul", "operator": "서울교통공사", "ref": null}}, {"type": "Feature", "geometry": {"type": "Point", "coordinates": [127.0631933, 37.4944743]}, "properties": {"name": "대치", "name_en": "Daechi", "operator": "서울교통공사", "ref": null}}, {"type": "Feature", "geometry": {"type": "Point", "coordinates": [127.046978, 37.4870692]}, "properties": {"name": "매봉", "name_en": "Maebong", "operator": "서울교통공사", "ref": "343"}}, {"type": "Feature", "geometry": {"type": "Point", "coordinates": [127.0163445, 37.484943]}, "properties": {"name": "남부터미널", "name_en": "Nambu Bus Terminal", "operator": "서울교통공사", "ref": null}}, {"type": "Feature", "geometry": {"type": "Point", "coordinates": [127.0111504, 37.5127513]}, "properties": {"name": "잠원", "name_en": "Jamwon", "operator": "서울교통공사", "ref": null}}, {"type": "Feature", "geometry": {"type": "Point", "coordinates": [127.0195159, 37.5161089]}, "properties": {"name": "신사", "name_en": "Sinsa", "operator": "서울교통공사;네오트랜스주식회사", "ref": null}}, {"type": "Feature", "geometry": {"type": "Point", "coordinates": [127.0284989, 37.5261847]}, "properties": {"name": "압구정", "name_en": "Apgujeong", "operator": "서울교통공사", "ref": null}}, {"type": "Feature", "geometry": {"type": "Point", "coordinates": [127.0159247, 37.5479735]}, "properties": {"name": "금호", "name_en": "Geumho", "operator": "서울교통공사", "ref": null}}, {"type": "Feature", "geometry": {"type": "Point", "coordinates": [127.005727, 37.5590607]}, "properties": {"name": "동대입구", "name_en": "Dongguk Univ.", "operator": "서울교통공사", "ref": null}}, {"type": "Feature", "geometry": {"type": "Point", "coordinates": [126.973526, 37.5757873]}, "properties": {"name": "경복궁", "name_en": "Gyeongbokgung", "operator": "한국철도공사", "ref": null}}, {"type": "Feature", "geometry": {"type": "Point", "coordinates": [126.9578361, 37.5745584]}, "properties": {"name": "독립문", "name_en": "Dongnimmun", "operator": "서울교통공사", "ref": null}}, {"type": "Feature", "geometry": {"type": "Point", "coordinates": [126.9503501, 37.5823172]}, "properties": {"name": "무악재", "name_en": "Muakjae", "operator": "서울교통공사", "ref": null}}, {"type": "Feature", "geometry": {"type": "Point", "coordinates": [126.9442528, 37.5886894]}, "properties": {"name": "홍제", "name_en": "Hongje", "operator": "서울교통공사", "ref": null}}, {"type": "Feature", "geometry": {"type": "Point", "coordinates": [126.9357307, 37.6009733]}, "properties": {"name": "녹번", "name_en": "Nokbeon", "operator": "서울교통공사", "ref": null}}, {"type": "Feature", "geometry": {"type": "Point", "coordinates": [126.9188046, 37.6368919]}, "properties": {"name": "구파발", "name_en": "Gupabal", "operator": "서울교통공사", "ref": null}}, {"type": "Feature", "geometry": {"type": "Point", "coordinates": [126.9769656, 37.4016323]}, "properties": {"name": "인덕원", "name_en": "Indeogwon", "operator": "한국철도공사", "ref": null}}, {"type": "Feature", "geometry": {"type": "Point", "coordinates": [126.9897504, 37.4264709]}, "properties": {"name": "정부과천청사", "name_en": "Government Complex Gwacheon", "operator": "한국철도공사", "ref": "439"}}, {"type": "Feature", "geometry": {"type": "Point", "coordinates": [127.0066085, 37.4358034]}, "properties": {"name": "대공원", "name_en": "Seoul Grand Park", "operator": "한국철도공사", "ref": "437"}}, {"type": "Feature", "geometry": {"type": "Point", "coordinates": [127.0021114, 37.4518055]}, "properties": {"name": "선바위", "name_en": "Seonbawi", "operator": "한국철도공사", "ref": "435"}}, {"type": "Feature", "geometry": {"type": "Point", "coordinates": [127.0789245, 37.670098]}, "properties": {"name": "불암산", "name_en": "Buramsan", "operator": "서울교통공사", "ref": null}}, {"type": "Feature", "geometry": {"type": "Point", "coordinates": [127.0345788, 37.6484028]}, "properties": {"name": "쌍문", "name_en": "Ssangmun", "operator": "서울교통공사", "ref": null}}, {"type": "Feature", "geometry": {"type": "Point", "coordinates": [127.0257229, 37.6379932]}, "properties": {"name": "수유", "name_en": "Suyu", "operator": "서울교통공사", "ref": null}}, {"type": "Feature", "geometry": {"type": "Point", "coordinates": [127.0261091, 37.6264941]}, "properties": {"name": "미아", "name_en": "Mia", "operator": "서울교통공사", "ref": null}}, {"type": "Feature", "geometry": {"type": "Point", "coordinates": [127.0300915, 37.613185]}, "properties": {"name": "미아사거리", "name_en": "Miasageori", "operator": "서울교통공사", "ref": null}}, {"type": "Feature", "geometry": {"type": "Point", "coordinates": [127.0248525, 37.6031599]}, "properties": {"name": "길음", "name_en": "Gireum", "operator": "서울교통공사", "ref": null}}, {"type": "Feature", "geometry": {"type": "Point", "coordinates": [127.0019525, 37.5821381]}, "properties": {"name": "혜화", "name_en": "Hyehwa", "operator": "서울교통공사", "ref": "420"}}, {"type": "Feature", "geometry": {"type": "Point", "coordinates": [126.9863762, 37.5608977]}, "properties": {"name": "명동", "name_en": "Myeongdong", "operator": "서울교통공사", "ref": "424"}}, {"type": "Feature", "geometry": {"type": "Point", "coordinates": [126.9784167, 37.5586981]}, "properties": {"name": "회현", "name_en": "Hoehyeon", "operator": "서울교통공사", "ref": null}}, {"type": "Feature", "geometry": {"type": "Point", "coordinates": [126.9725721, 37.5528527]}, "properties": {"name": "서울역", "name_en": "Seoul Station", "operator": "서울교통공사", "ref": "427"}}, {"type": "Feature", "geometry": {"type": "Point", "coordinates": [126.9719573, 37.5451337]}, "properties": {"name": "숙대입구", "name_en": "Sookmyung Women's Univ.", "operator": "서울교통공사", "ref": "427"}}, {"type": "Feature", "geometry": {"type": "Point", "coordinates": [126.9678569, 37.5291744]}, "properties": {"name": "신용산", "name_en": "Sinyongsan", "operator": "서울교통공사", "ref": null}}, {"type": "Feature", "geometry": {"type": "Point", "coordinates": [126.9816682, 37.4765828]}, "properties": {"name": "사당", "name_en": "Sadang", "operator": "서울교통공사", "ref": null}}, {"type": "Feature", "geometry": {"type": "Point", "coordinates": [126.9886975, 37.4646556]}, "properties": {"name": "남태령", "name_en": "Namtaeryeong", "operator": "서울교통공사", "ref": "434"}}, {"type": "Feature", "geometry": {"type": "Point", "coordinates": [127.1527241, 37.4949531]}, "properties": {"name": "마천", "name_en": "Macheon", "operator": "서울교통공사", "ref": null}}, {"type": "Feature", "geometry": {"type": "Point", "coordinates": [127.1437709, 37.4933453]}, "properties": {"name": "거여", "name_en": "Geoyeo", "operator": "서울교통공사", "ref": null}}, {"type": "Feature", "geometry": {"type": "Point", "coordinates": [127.1348432, 37.4980749]}, "properties": {"name": "개롱", "name_en": "Gaerong", "operator": "서울교통공사", "ref": null}}, {"type": "Feature", "geometry": {"type": "Point", "coordinates": [127.1260388, 37.5086429]}, "properties": {"name": "방이", "name_en": "Bangi", "operator": "서울교통공사", "ref": null}}, {"type": "Feature", "geometry": {"type": "Point", "coordinates": [127.1309298, 37.5161479]}, "properties": {"name": "올림픽공원", "name_en": "Olympic Park", "operator": "서울교통공사", "ref": null}}, {"type": "Feature", "geometry": {"type": "Point", "coordinates": [127.1362433, 37.5278024]}, "properties": {"name": "둔촌동", "name_en": "Dunchon-dong", "operator": "서울교통공사", "ref": null}}, {"type": "Feature", "geometry": {"type": "Point", "coordinates": [127.1667789, 37.5567762]}, "properties": {"name": "상일동", "name_en": "Sangil-dong", "operator": "서울교통공사", "ref": null}}, {"type": "Feature", "geometry": {"type": "Point", "coordinates": [127.1537755, 37.5549771]}, "properties": {"name": "고덕", "name_en": "Godeok", "operator": "서울교통공사", "ref": null}}, {"type": "Feature", "geometry": {"type": "Point", "coordinates": [127.1440847, 37.5519533]}, "properties": {"name": "명일", "name_en": "Myeongil", "operator": "서울교통공사", "ref": null}}, {"type": "Feature", "geometry": {"type": "Point", "coordinates": [127.1429622, 37.5456375]}, "properties": {"name": "굽은다리", "name_en": "Gubeundari", "operator": "서울교통공사", "ref": null}}, {"type": "Feature", "geometry": {"type": "Point", "coordinates": [127.1402049, 37.5383683]}, "properties": {"name": "길동", "name_en": "Gil-dong", "operator": "서울교통공사", "ref": null}}, {"type": "Feature", "geometry": {"type": "Point", "coordinates": [127.1325955, 37.5357969]}, "properties": {"name": "강동", "name_en": "Gangdong", "operator": "서울교통공사", "ref": null}}, {"type": "Feature", "geometry": {"type": "Point", "coordinates": [127.103527, 37.5453014]}, "properties": {"name": "광나루", "name_en": "Gwangnaru", "operator": "서울교통공사", "ref": null}}, {"type": "Feature", "geometry": {"type": "Point", "coordinates": [127.0897955, 37.5516981]}, "properties": {"name": "아차산", "name_en": "Achasan", "operator": "서울교통공사", "ref": null}}, {"type": "Feature", "geometry": {"type": "Point", "coordinates": [127.0645666, 37.5614909]}, "properties": {"name": "장한평", "name_en": "Janghanpyeong", "operator": "서울교통공사", "ref": null}}, {"type": "Feature", "geometry": {"type": "Point", "coordinates": [127.0526992, 37.5668136]}, "properties": {"name": "답십리", "name_en": "Dapsipri", "operator": "서울교통공사", "ref": null}}, {"type": "Feature", "geometry": {"type": "Point", "coordinates": [127.042881, 37.5660982]}, "properties": {"name": "마장", "name_en": "Majang", "operator": "서울교통공사", "ref": null}}, {"type": "Feature", "geometry": {"type": "Point", "coordinates": [127.0299929, 37.5576063]}, "properties": {"name": "행당", "name_en": "Haengdang", "operator": "서울교통공사", "ref": null}}, {"type": "Feature", "geometry": {"type": "Point", "coordinates": [127.0202485, 37.554429]}, "properties": {"name": "신금호", "name_en": "Singeumho", "operator": "서울교통공사", "ref": null}}, {"type": "Feature", "geometry": {"type": "Point", "coordinates": [126.9769026, 37.5716162]}, "properties": {"name": "광화문", "name_en": "Gwanghwamun", "operator": "한국철도공사", "ref": "533"}}, {"type": "Feature", "geometry": {"type": "Point", "coordinates": [126.9666351, 37.5657953]}, "properties": {"name": "서대문", "name_en": "Seodaemun", "operator": "서울교통공사", "ref": null}}, {"type": "Feature", "geometry": {"type": "Point", "coordinates": [126.9566976, 37.553428]}, "properties": {"name": "애오개", "name_en": "Aeogae", "operator": "서울교통공사", "ref": null}}, {"type": "Feature", "geometry": {"type": "Point", "coordinates": [126.9508061, 37.5436538]}, "properties": {"name": "공덕", "name_en": "Gongdeok", "operator": "서울교통공사;한국철도공사;공항철도주식회사", "ref": null}}, {"type": "Feature", "geometry": {"type": "Point", "coordinates": [126.9459929, 37.5396369]}, "properties": {"name": "마포", "name_en": "Mapo", "operator": "서울교통공사", "ref": null}}, {"type": "Feature", "geometry": {"type": "Point", "coordinates": [126.9325288, 37.5268526]}, "properties": {"name": "여의나루", "name_en": "Yeouinaru", "operator": "서울교통공사", "ref": null}}, {"type": "Feature", "geometry": {"type": "Point", "coordinates": [126.9243018, 37.5216685]}, "properties": {"name": "여의도", "name_en": "Yeouido", "operator": "서울교통공사;서울시메트로9호선", "ref": null}}, {"type": "Feature", "geometry": {"type": "Point", "coordinates": [126.9187443, 37.5166485]}, "properties": {"name": "신길", "name_en": "Singil", "operator": "한국철도공사", "ref": null}}, {"type": "Feature", "geometry": {"type": "Point", "coordinates": [126.9051415, 37.5226934]}, "properties": {"name": "영등포시장", "name_en": "Yeongdeungpo Market", "operator": "서울교통공사", "ref": null}}, {"type": "Feature", "geometry": {"type": "Point", "coordinates": [126.8963369, 37.5240181]}, "properties": {"name": "영등포구청", "name_en": "Yeongdeungpo-gu Office", "operator": "서울교통공사", "ref": null}}, {"type": "Feature", "geometry": {"type": "Point", "coordinates": [126.8861176, 37.5256329]}, "properties": {"name": "양평", "name_en": "Yangpyeong", "operator": "서울교통공사", "ref": null}}, {"type": "Feature", "geometry": {"type": "Point", "coordinates": [126.8751222, 37.5245648]}, "properties": {"name": "오목교", "name_en": "Omokgyo", "operator": "서울교통공사", "ref": null}}, {"type": "Feature", "geometry": {"type": "Point", "coordinates": [126.8645174, 37.5261241]}, "properties": {"name": "목동", "name_en": "Mok-dong", "operator": "서울교통공사", "ref": null}}, {"type": "Feature", "geometry": {"type": "Point", "coordinates": [126.8559699, 37.5250413]}, "properties": {"name": "신정", "name_en": "Sinjeong", "operator": "서울교통공사", "ref": null}}, {"type": "Feature", "geometry": {"type": "Point", "coordinates": [126.8465265, 37.5321119]}, "properties": {"name": "까치산", "name_en": "Kkachisan", "operator": "서울교통공사", "ref": "234-4;518"}}, {"type": "Feature", "geometry": {"type": "Point", "coordinates": [126.840397, 37.5416728]}, "properties": {"name": "화곡", "name_en": "Hwagok", "operator": "서울교통공사", "ref": null}}, {"type": "Feature", "geometry": {"type": "Point", "coordinates": [126.8363227, 37.5488943]}, "properties": {"name": "우장산", "name_en": "Ujangsan", "operator": "서울교통공사", "ref": null}}, {"type": "Feature", "geometry": {"type": "Point", "coordinates": [126.8374653, 37.5584951]}, "properties": {"name": "발산", "name_en": "Balsan", "operator": "서울교통공사", "ref": null}}, {"type": "Feature", "geometry": {"type": "Point", "coordinates": [126.8247463, 37.5602492]}, "properties": {"name": "마곡", "name_en": "Magok", "operator": "서울교통공사", "ref": null}}, {"type": "Feature", "geometry": {"type": "Point", "coordinates": [126.8119428, 37.5612772]}, "properties": {"name": "송정", "name_en": "Songjeong", "operator": "서울교통공사", "ref": null}}, {"type": "Feature", "geometry": {"type": "Point", "coordinates": [126.8082601, 37.5728758]}, "properties": {"name": "개화산", "name_en": "Gaehwasan", "operator": "서울교통공사", "ref": null}}, {"type": "Feature", "geometry": {"type": "Point", "coordinates": [126.812732, 37.5774043]}, "properties": {"name": "방화", "name_en": "Banghwa", "operator": "서울교통공사", "ref": null}}, {"type": "Feature", "geometry": {"type": "Point", "coordinates": [127.0910968, 37.6174165]}, "properties": {"name": "봉화산", "name_en": "Bonghwasan", "operator": "서울교통공사", "ref": null}}, {"type": "Feature", "geometry": {"type": "Point", "coordinates": [127.0837122, 37.6197841]}, "properties": {"name": "화랑대", "name_en": "Hwarangdae", "operator": "서울교통공사", "ref": null}}, {"type": "Feature", "geometry": {"type": "Point", "coordinates": [127.0658393, 37.6148083]}, "properties": {"name": "석계", "name_en": "Seokgye", "operator": "한국철도공사", "ref": null}}, {"type": "Feature", "geometry": {"type": "Point", "coordinates": [127.0564932, 37.6105663]}, "properties": {"name": "돌곶이", "name_en": "Dolgoji", "operator": "서울교통공사", "ref": null}}, {"type": "Feature", "geometry": {"type": "Point", "coordinates": [127.0482722, 37.6062379]}, "properties": {"name": "상월곡", "name_en": "Sangwolgok", "operator": "서울교통공사", "ref": null}}, {"type": "Feature", "geometry": {"type": "Point", "coordinates": [127.0414554, 37.60192]}, "properties": {"name": "월곡", "name_en": "Wolgok", "operator": "서울교통공사", "ref": null}}, {"type": "Feature", "geometry": {"type": "Point", "coordinates": [127.0292777, 37.5862688]}, "properties": {"name": "안암", "name_en": "Anam", "operator": "서울교통공사", "ref": null}}, {"type": "Feature", "geometry": {"type": "Point", "coordinates": [127.0152468, 37.5798042]}, "properties": {"name": "창신", "name_en": "Changsin", "operator": "서울교통공사", "ref": null}}, {"type": "Feature", "geometry": {"type": "Point", "coordinates": [127.0137776, 37.5602311]}, "properties": {"name": "청구", "name_en": "Cheonggu", "operator": "서울교통공사", "ref": null}}, {"type": "Feature", "geometry": {"type": "Point", "coordinates": [127.0065879, 37.5482323]}, "properties": {"name": "버티고개", "name_en": "Beotigogae", "operator": "서울교통공사", "ref": null}}, {"type": "Feature", "geometry": {"type": "Point", "coordinates": [127.0017506, 37.5397964]}, "properties": {"name": "한강진", "name_en": "Hangangjin", "operator": "서울교통공사", "ref": null}}, {"type": "Feature", "geometry": {"type": "Point", "coordinates": [126.9943705, 37.5345026]}, "properties": {"name": "이태원", "name_en": "Itaewon", "operator": "서울교통공사", "ref": "630"}}, {"type": "Feature", "geometry": {"type": "Point", "coordinates": [126.9865773, 37.53492]}, "properties": {"name": "녹사평", "name_en": "Noksapyeong", "operator": "서울교통공사", "ref": "629"}}, {"type": "Feature", "geometry": {"type": "Point", "coordinates": [126.9613324, 37.5393413]}, "properties": {"name": "효창공원앞", "name_en": "Hyochang Park", "operator": "서울교통공사;한국철도공사", "ref": null}}, {"type": "Feature", "geometry": {"type": "Point", "coordinates": [126.9423451, 37.5476992]}, "properties": {"name": "대흥", "name_en": "Daeheung", "operator": "서울교통공사", "ref": null}}, {"type": "Feature", "geometry": {"type": "Point", "coordinates": [126.9319609, 37.5474717]}, "properties": {"name": "광흥창", "name_en": "Gwangheungchang", "operator": "서울교통공사", "ref": null}}, {"type": "Feature", "geometry": {"type": "Point", "coordinates": [126.9228923, 37.5477577]}, "properties": {"name": "상수", "name_en": "Sangsu", "operator": "서울교통공사", "ref": null}}, {"type": "Feature", "geometry": {"type": "Point", "coordinates": [126.9101277, 37.5560254]}, "properties": {"name": "망원", "name_en": "Mangwon", "operator": "서울교통공사", "ref": null}}, {"type": "Feature", "geometry": {"type": "Point", "coordinates": [126.9033645, 37.5635586]}, "properties": {"name": "마포구청", "name_en": "Mapo-gu Office", "operator": "서울교통공사", "ref": null}}, {"type": "Feature", "geometry": {"type": "Point", "coordinates": [126.8993179, 37.5701918]}, "properties": {"name": "월드컵경기장", "name_en": "World Cup Stadium", "operator": "서울교통공사", "ref": null}}, {"type": "Feature", "geometry": {"type": "Point", "coordinates": [126.9099118, 37.5841441]}, "properties": {"name": "증산", "name_en": "Jeungsan", "operator": "서울교통공사", "ref": null}}, {"type": "Feature", "geometry": {"type": "Point", "coordinates": [126.9137922, 37.5916491]}, "properties": {"name": "새절", "name_en": "Saejeol", "operator": "서울교통공사", "ref": null}}, {"type": "Feature", "geometry": {"type": "Point", "coordinates": [126.9172191, 37.6112496]}, "properties": {"name": "구산", "name_en": "Gusan", "operator": "서울교통공사", "ref": null}}, {"type": "Feature", "geometry": {"type": "Point", "coordinates": [126.9211838, 37.6189247]}, "properties": {"name": "연신내", "name_en": "Yeonsinnae", "operator": "서울교통공사", "ref": "614;321"}}, {"type": "Feature", "geometry": {"type": "Point", "coordinates": [126.9330214, 37.6183371]}, "properties": {"name": "독바위", "name_en": "Dokbawi", "operator": "서울교통공사", "ref": null}}, {"type": "Feature", "geometry": {"type": "Point", "coordinates": [126.9227556, 37.6060733]}, "properties": {"name": "역촌", "name_en": "Yeokchon", "operator": "서울교통공사", "ref": null}}, {"type": "Feature", "geometry": {"type": "Point", "coordinates": [127.0529079, 37.6999741]}, "properties": {"name": "장암", "name_en": "Jangam", "operator": "서울교통공사", "ref": null}}, {"type": "Feature", "geometry": {"type": "Point", "coordinates": [127.0743915, 37.5475998]}, "properties": {"name": "어린이대공원", "name_en": "Children's Grand Park", "operator": "서울교통공사", "ref": null}}, {"type": "Feature", "geometry": {"type": "Point", "coordinates": [127.0795575, 37.5572448]}, "properties": {"name": "군자", "name_en": "Gunja", "operator": "서울교통공사", "ref": null}}, {"type": "Feature", "geometry": {"type": "Point", "coordinates": [127.0845155, 37.5663055]}, "properties": {"name": "중곡", "name_en": "Junggok", "operator": "서울교통공사", "ref": null}}, {"type": "Feature", "geometry": {"type": "Point", "coordinates": [127.0865798, 37.573993]}, "properties": {"name": "용마산", "name_en": "Yongmasan", "operator": "서울교통공사", "ref": null}}, {"type": "Feature", "geometry": {"type": "Point", "coordinates": [127.0884106, 37.5806971]}, "properties": {"name": "사가정", "name_en": "Sagajeong", "operator": "서울교통공사", "ref": null}}, {"type": "Feature", "geometry": {"type": "Point", "coordinates": [127.0876041, 37.5884004]}, "properties": {"name": "면목", "name_en": "Myeonmok", "operator": "서울교통공사", "ref": null}}, {"type": "Feature", "geometry": {"type": "Point", "coordinates": [127.0855918, 37.5960832]}, "properties": {"name": "상봉", "name_en": "Sangbong", "operator": "서울교통공사", "ref": null}}, {"type": "Feature", "geometry": {"type": "Point", "coordinates": [127.0795172, 37.6016267]}, "properties": {"name": "중화", "name_en": "Junghwa", "operator": "서울교통공사", "ref": null}}, {"type": "Feature", "geometry": {"type": "Point", "coordinates": [127.0776518, 37.6114417]}, "properties": {"name": "먹골", "name_en": "Meokgol", "operator": "서울교통공사", "ref": null}}, {"type": "Feature", "geometry": {"type": "Point", "coordinates": [127.0756723, 37.6176924]}, "properties": {"name": "태릉입구", "name_en": "Taereung", "operator": "서울교통공사", "ref": null}}, {"type": "Feature", "geometry": {"type": "Point", "coordinates": [127.0730437, 37.6256358]}, "properties": {"name": "공릉", "name_en": "Gongneung", "operator": "서울교통공사", "ref": null}}, {"type": "Feature", "geometry": {"type": "Point", "coordinates": [127.068252, 37.6360179]}, "properties": {"name": "하계", "name_en": "Hagye", "operator": "서울교통공사", "ref": null}}, {"type": "Feature", "geometry": {"type": "Point", "coordinates": [127.0638733, 37.6455373]}, "properties": {"name": "중계", "name_en": "Junggye", "operator": "서울교통공사", "ref": null}}, {"type": "Feature", "geometry": {"type": "Point", "coordinates": [127.0604932, 37.6545911]}, "properties": {"name": "노원", "name_en": "Nowon", "operator": "서울교통공사", "ref": null}}, {"type": "Feature", "geometry": {"type": "Point", "coordinates": [127.0577205, 37.665038]}, "properties": {"name": "마들", "name_en": "Madeul", "operator": "서울교통공사", "ref": null}}, {"type": "Feature", "geometry": {"type": "Point", "coordinates": [127.0553431, 37.6778035]}, "properties": {"name": "수락산", "name_en": "Suraksan", "operator": "서울교통공사", "ref": null}}, {"type": "Feature", "geometry": {"type": "Point", "coordinates": [126.8544598, 37.4794207]}, "properties": {"name": "광명사거리", "name_en": "Gwangmyeongsageori", "operator": "서울교통공사", "ref": null}}, {"type": "Feature", "geometry": {"type": "Point", "coordinates": [126.8675973, 37.4760012]}, "properties": {"name": "철산", "name_en": "Cheolsan", "operator": "서울교통공사", "ref": "747"}}, {"type": "Feature", "geometry": {"type": "Point", "coordinates": [126.8826166, 37.4815947]}, "properties": {"name": "가산디지털단지", "name_en": "Gasan Digital Complex", "operator": "한국철도공사", "ref": null}}, {"type": "Feature", "geometry": {"type": "Point", "coordinates": [126.8866651, 37.4853612]}, "properties": {"name": "남구로", "name_en": "Namguro", "operator": "서울교통공사", "ref": null}}, {"type": "Feature", "geometry": {"type": "Point", "coordinates": [126.8949325, 37.4934375]}, "properties": {"name": "대림", "name_en": "Daerim", "operator": "서울교통공사", "ref": "233;744"}}, {"type": "Feature", "geometry": {"type": "Point", "coordinates": [126.9088751, 37.5001667]}, "properties": {"name": "신풍", "name_en": "Sinpung", "operator": "서울교통공사", "ref": null}}, {"type": "Feature", "geometry": {"type": "Point", "coordinates": [126.9203764, 37.4999284]}, "properties": {"name": "보라매", "name_en": "Boramae", "operator": "서울교통공사", "ref": null}}, {"type": "Feature", "geometry": {"type": "Point", "coordinates": [126.9282246, 37.499706]}, "properties": {"name": "신대방삼거리", "name_en": "Sindaebangsamgeori", "operator": "서울교통공사", "ref": null}}, {"type": "Feature", "geometry": {"type": "Point", "coordinates": [126.9392793, 37.5050172]}, "properties": {"name": "장승배기", "name_en": "Jangseungbaegi", "operator": "서울교통공사", "ref": null}}, {"type": "Feature", "geometry": {"type": "Point", "coordinates": [126.9476726, 37.503216]}, "properties": {"name": "상도", "name_en": "Sangdo", "operator": "서울교통공사", "ref": null}}, {"type": "Feature", "geometry": {"type": "Point", "coordinates": [126.9541334, 37.4956862]}, "properties": {"name": "숭실대입구", "name_en": "Soongsil Univ.", "operator": "서울교통공사", "ref": null}}, {"type": "Feature", "geometry": {"type": "Point", "coordinates": [126.9718936, 37.4843545]}, "properties": {"name": "남성", "name_en": "Namseong", "operator": "서울교통공사", "ref": null}}, {"type": "Feature", "geometry": {"type": "Point", "coordinates": [126.9821095, 37.4854491]}, "properties": {"name": "이수", "name_en": "Isu", "operator": "서울교통공사", "ref": null}}, {"type": "Feature", "geometry": {"type": "Point", "coordinates": [126.9935544, 37.4876455]}, "properties": {"name": "내방", "name_en": "Naebang", "operator": "서울교통공사", "ref": null}}, {"type": "Feature", "geometry": {"type": "Point", "coordinates": [127.0116346, 37.5081748]}, "properties": {"name": "반포", "name_en": "Banpo", "operator": "서울교통공사", "ref": null}}, {"type": "Feature", "geometry": {"type": "Point", "coordinates": [127.0213641, 37.5109791]}, "properties": {"name": "논현", "name_en": "Nonhyeon", "operator": "서울교통공사;네오트랜스주식회사", "ref": null}}, {"type": "Feature", "geometry": {"type": "Point", "coordinates": [127.03075, 37.5139566]}, "properties": {"name": "학동", "name_en": "Hak-dong", "operator": "서울교통공사", "ref": "731"}}, {"type": "Feature", "geometry": {"type": "Point", "coordinates": [127.0516784, 37.5190912]}, "properties": {"name": "청담", "name_en": "Cheongdam", "operator": "서울교통공사", "ref": null}}, {"type": "Feature", "geometry": {"type": "Point", "coordinates": [127.0667418, 37.5315323]}, "properties": {"name": "자양", "name_en": "Jayang", "operator": "서울교통공사", "ref": null}}, {"type": "Feature", "geometry": {"type": "Point", "coordinates": [127.0380657, 37.5740737]}, "properties": {"name": "용두", "name_en": "Yongdu", "operator": "서울교통공사", "ref": "211-3"}}, {"type": "Feature", "geometry": {"type": "Point", "coordinates": [127.0471268, 37.5697194]}, "properties": {"name": "신답", "name_en": "Sindap", "operator": "서울교통공사", "ref": "211-2"}}, {"type": "Feature", "geometry": {"type": "Point", "coordinates": [126.731337, 37.5070226]}, "properties": {"name": "굴포천", "name_en": "Gulpocheon", "operator": "인천교통공사", "ref": null}}, {"type": "Feature", "geometry": {"type": "Point", "coordinates": [126.7423475, 37.506496]}, "properties": {"name": "삼산체육관", "name_en": "Samsan Gymnasium", "operator": "인천교통공사", "ref": null}}, {"type": "Feature", "geometry": {"type": "Point", "coordinates": [126.7762325, 37.5030388]}, "properties": {"name": "신중동", "name_en": "Sinjung-dong", "operator": "인천교통공사", "ref": null}}, {"type": "Feature", "geometry": {"type": "Point", "coordinates": [126.7872014, 37.5037314]}, "properties": {"name": "춘의", "name_en": "Chunui", "operator": "인천교통공사", "ref": null}}, {"type": "Feature", "geometry": {"type": "Point", "coordinates": [126.7972885, 37.5054566]}, "properties": {"name": "부천종합운동장", "name_en": "Bucheon Stadium", "operator": "인천교통공사", "ref": null}}, {"type": "Feature", "geometry": {"type": "Point", "coordinates": [126.8113842, 37.5062407]}, "properties": {"name": "까치울", "name_en": "Kkachiul", "operator": "인천교통공사", "ref": null}}, {"type": "Feature", "geometry": {"type": "Point", "coordinates": [126.8389218, 37.4863668]}, "properties": {"name": "천왕", "name_en": "Cheonwang", "operator": "서울교통공사", "ref": null}}, {"type": "Feature", "geometry": {"type": "Point", "coordinates": [127.1406857, 37.4374429]}, "properties": {"name": "수진", "name_en": "Sujin", "operator": null, "ref": null}}, {"type": "Feature", "geometry": {"type": "Point", "coordinates": [127.1476641, 37.4410027]}, "properties": {"name": "신흥", "name_en": "Sinheung", "operator": null, "ref": null}}, {"type": "Feature", "geometry": {"type": "Point", "coordinates": [127.1567783, 37.4450845]}, "properties": {"name": "단대오거리", "name_en": "Dandaeogeori", "operator": null, "ref": null}}, {"type": "Feature", "geometry": {"type": "Point", "coordinates": [127.1598132, 37.4515531]}, "properties": {"name": "남한산성입구", "name_en": "Namhansanseong", "operator": null, "ref": null}}, {"type": "Feature", "geometry": {"type": "Point", "coordinates": [127.1499333, 37.4568677]}, "properties": {"name": "산성", "name_en": "Sanseong", "operator": null, "ref": null}}, {"type": "Feature", "geometry": {"type": "Point", "coordinates": [127.1392162, 37.4627715]}, "properties": {"name": "남위례", "name_en": "Namwirye", "operator": "서울교통공사", "ref": null}}, {"type": "Feature", "geometry": {"type": "Point", "coordinates": [127.126067, 37.4788881]}, "properties": {"name": "장지", "name_en": "Jangji", "operator": "서울교통공사", "ref": null}}, {"type": "Feature", "geometry": {"type": "Point", "coordinates": [127.1225184, 37.4858358]}, "properties": {"name": "문정", "name_en": "Munjeong", "operator": "서울교통공사", "ref": null}}, {"type": "Feature", "geometry": {"type": "Point", "coordinates": [127.1121822, 37.4997247]}, "properties": {"name": "송파", "name_en": "Songpa", "operator": "서울교통공사", "ref": null}}, {"type": "Feature", "geometry": {"type": "Point", "coordinates": [127.1071105, 37.5052954]}, "properties": {"name": "석촌", "name_en": "Seokchon", "operator": "서울교통공사", "ref": null}}, {"type": "Feature", "geometry": {"type": "Point", "coordinates": [127.11267, 37.5175329]}, "properties": {"name": "몽촌토성", "name_en": "Mongchontoseong", "operator": "서울교통공사", "ref": null}}, {"type": "Feature", "geometry": {"type": "Point", "coordinates": [127.1206234, 37.5306942]}, "properties": {"name": "강동구청", "name_en": "Gangdong-gu Office", "operator": "서울교통공사", "ref": null}}, {"type": "Feature", "geometry": {"type": "Point", "coordinates": [127.1275385, 37.5501059]}, "properties": {"name": "암사", "name_en": "Amsa", "operator": "서울교통공사", "ref": null}}, {"type": "Feature", "geometry": {"type": "Point", "coordinates": [127.1482582, 37.5282799]}, "properties": {"name": "중앙보훈병원", "name_en": "VHS Medical Center", "operator": "서울교통공사", "ref": null}}, {"type": "Feature", "geometry": {"type": "Point", "coordinates": [127.1384179, 37.5198411]}, "properties": {"name": "둔촌오륜", "name_en": "Dunchon Oryun", "operator": "서울교통공사", "ref": null}}, {"type": "Feature", "geometry": {"type": "Point", "coordinates": [127.1162125, 37.5166702]}, "properties": {"name": "한성백제", "name_en": "Hanseong Baekje", "operator": "서울교통공사", "ref": null}}, {"type": "Feature", "geometry": {"type": "Point", "coordinates": [127.1127954, 37.511245]}, "properties": {"name": "송파나루", "name_en": "Songpanaru", "operator": "서울교통공사", "ref": null}}, {"type": "Feature", "geometry": {"type": "Point", "coordinates": [127.0966143, 37.5024441]}, "properties": {"name": "석촌고분", "name_en": "Seokchon Gobun", "operator": "서울교통공사", "ref": null}}, {"type": "Feature", "geometry": {"type": "Point", "coordinates": [127.0872078, 37.5045347]}, "properties": {"name": "삼전", "name_en": "Samjeon", "operator": "서울교통공사", "ref": null}}, {"type": "Feature", "geometry": {"type": "Point", "coordinates": [126.721104, 37.5074652]}, "properties": {"name": "부평구청", "name_en": "Bupyeong-gu Office", "operator": "인천교통공사", "ref": "759"}}, {"type": "Feature", "geometry": {"type": "Point", "coordinates": [126.7880378, 37.6430359]}, "properties": {"name": "백석", "name_en": "Baekseok", "operator": "한국철도공사", "ref": null}}, {"type": "Feature", "geometry": {"type": "Point", "coordinates": [126.7036926, 37.5086974]}, "properties": {"name": "산곡", "name_en": "Sangok", "operator": "인천교통공사", "ref": null}}, {"type": "Feature", "geometry": {"type": "Point", "coordinates": [126.8118113, 37.4852186]}, "properties": {"name": "역곡", "name_en": "Yeokgok", "operator": "한국철도공사", "ref": null}}, {"type": "Feature", "geometry": {"type": "Point", "coordinates": [127.0164764, 37.5926755]}, "properties": {"name": "성신여대입구", "name_en": "Sungshin Women's University", "operator": "서울교통공사", "ref": "418"}}, {"type": "Feature", "geometry": {"type": "Point", "coordinates": [127.0446284, 37.5799754]}, "properties": {"name": "청량리", "name_en": "Cheongnyangni", "operator": "서울교통공사", "ref": "124"}}, {"type": "Feature", "geometry": {"type": "Point", "coordinates": [127.1040904, 37.6125508]}, "properties": {"name": "신내", "name_en": "Sinnae", "operator": "서울교통공사", "ref": null}}, {"type": "Feature", "geometry": {"type": "Point", "coordinates": [126.9923242, 37.5704405]}, "properties": {"name": "종로3가", "name_en": "Jongno 3(sam)-ga", "operator": "서울교통공사", "ref": null}}, {"type": "Feature", "geometry": {"type": "Point", "coordinates": [127.0231865, 37.5759931]}, "properties": {"name": "신설동", "name_en": "Sinseol-dong", "operator": "우이신설경전철운영(주)", "ref": "L13"}}, {"type": "Feature", "geometry": {"type": "Point", "coordinates": [127.0165294, 37.5924189]}, "properties": {"name": "성신여대입구", "name_en": "Sungshin Women's University", "operator": "우이신설경전철운영(주)", "ref": "L11"}}, {"type": "Feature", "geometry": {"type": "Point", "coordinates": [126.9733678, 37.5227123]}, "properties": {"name": "이촌", "name_en": "Ichon", "operator": "서울교통공사", "ref": null}}, {"type": "Feature", "geometry": {"type": "Point", "coordinates": [127.1162693, 37.6678242]}, "properties": {"name": "별내별가람", "name_en": "Byeollaebyeolgaram", "operator": "남양주도시공사", "ref": null}}, {"type": "Feature", "geometry": {"type": "Point", "coordinates": [126.9697994, 37.5534363]}, "properties": {"name": "서울역", "name_en": "Seoul Station", "operator": "공항철도주식회사", "ref": "A01"}}, {"type": "Feature", "geometry": {"type": "Point", "coordinates": [127.192822, 37.5630546]}, "properties": {"name": "미사", "name_en": "Misa", "operator": "서울교통공사", "ref": null}}, {"type": "Feature", "geometry": {"type": "Point", "coordinates": [127.069384, 37.5403626]}, "properties": {"name": "건대입구", "name_en": "Konkuk Univ.", "operator": "서울교통공사", "ref": null}}, {"type": "Feature", "geometry": {"type": "Point", "coordinates": [127.0371526, 37.5612078]}, "properties": {"name": "왕십리", "name_en": "Wangsimni", "operator": "서울교통공사", "ref": "208"}}, {"type": "Feature", "geometry": {"type": "Point", "coordinates": [127.0357093, 37.5609924]}, "properties": {"name": "왕십리", "name_en": "Wangsimni", "operator": "서울교통공사", "ref": "540"}}, {"type": "Feature", "geometry": {"type": "Point", "coordinates": [127.0254473, 37.5745192]}, "properties": {"name": "신설동", "name_en": "Sinseol-dong", "operator": "서울교통공사", "ref": "211-4"}}, {"type": "Feature", "geometry": {"type": "Point", "coordinates": [127.0476987, 37.6531817]}, "properties": {"name": "창동", "name_en": "Chang-Dong", "operator": "서울교통공사", "ref": null}}, {"type": "Feature", "geometry": {"type": "Point", "coordinates": [126.9803481, 37.5031081]}, "properties": {"name": "동작", "name_en": "Dongjak", "operator": "서울교통공사", "ref": "431"}}, {"type": "Feature", "geometry": {"type": "Point", "coordinates": [126.7976654, 37.5785381]}, "properties": {"name": "개화", "name_en": "Gaehwa", "operator": "서울시메트로9호선", "ref": null}}, {"type": "Feature", "geometry": {"type": "Point", "coordinates": [126.7612377, 37.6701524]}, "properties": {"name": "주엽", "name_en": "Juyeop", "operator": "한국철도공사", "ref": "310"}}, {"type": "Feature", "geometry": {"type": "Point", "coordinates": [126.7009761, 37.449506]}, "properties": {"name": "예술회관", "name_en": "Arts Center", "operator": "인천교통공사", "ref": "I125"}}, {"type": "Feature", "geometry": {"type": "Point", "coordinates": [126.7079494, 37.4671553]}, "properties": {"name": "간석오거리", "name_en": "Ganseogogeori", "operator": "인천교통공사", "ref": "I123"}}, {"type": "Feature", "geometry": {"type": "Point", "coordinates": [126.7103571, 37.4779093]}, "properties": {"name": "부평삼거리", "name_en": "Bupyeongsamgeori", "operator": "인천교통공사", "ref": "I122"}}, {"type": "Feature", "geometry": {"type": "Point", "coordinates": [126.7185419, 37.4854218]}, "properties": {"name": "동수", "name_en": "Dongsu", "operator": "인천교통공사", "ref": "I121"}}, {"type": "Feature", "geometry": {"type": "Point", "coordinates": [126.7237346, 37.4899854]}, "properties": {"name": "부평", "name_en": "Bupyeong", "operator": "인천교통공사", "ref": "I120"}}, {"type": "Feature", "geometry": {"type": "Point", "coordinates": [126.722289, 37.4983678]}, "properties": {"name": "부평시장", "name_en": "Bupyeong Market", "operator": "인천교통공사", "ref": "I119"}}, {"type": "Feature", "geometry": {"type": "Point", "coordinates": [126.7205539, 37.5082283]}, "properties": {"name": "부평구청", "name_en": "Bupyeong-gu Office", "operator": "인천교통공사", "ref": "I118"}}, {"type": "Feature", "geometry": {"type": "Point", "coordinates": [126.7215178, 37.5168126]}, "properties": {"name": "갈산", "name_en": "Galsan", "operator": "인천교통공사", "ref": "I117"}}, {"type": "Feature", "geometry": {"type": "Point", "coordinates": [126.7225307, 37.5303129]}, "properties": {"name": "작전", "name_en": "Jakjeon", "operator": "인천교통공사", "ref": "I116"}}, {"type": "Feature", "geometry": {"type": "Point", "coordinates": [126.7226027, 37.5384076]}, "properties": {"name": "경인교대입구", "name_en": "Gyeongin Nat'l Univ. of Education", "operator": "인천교통공사", "ref": "I115"}}, {"type": "Feature", "geometry": {"type": "Point", "coordinates": [126.7278571, 37.543336]}, "properties": {"name": "계산", "name_en": "Gyesan", "operator": "인천교통공사", "ref": "I114"}}, {"type": "Feature", "geometry": {"type": "Point", "coordinates": [126.945328, 37.4687357]}, "properties": {"name": "관악산", "name_en": "Gwanaksan", "operator": "로템SRS", "ref": null}}, {"type": "Feature", "geometry": {"type": "Point", "coordinates": [126.9337059, 37.4720025]}, "properties": {"name": "서울대벤처타운", "name_en": "Seoul Nat'l Univ. Venture Town", "operator": "로템SRS", "ref": null}}, {"type": "Feature", "geometry": {"type": "Point", "coordinates": [126.9296105, 37.4846585]}, "properties": {"name": "신림", "name_en": "Sillim", "operator": "로템SRS", "ref": "S408"}}, {"type": "Feature", "geometry": {"type": "Point", "coordinates": [126.9278008, 37.4896958]}, "properties": {"name": "당곡", "name_en": "Danggok", "operator": "로템SRS", "ref": null}}, {"type": "Feature", "geometry": {"type": "Point", "coordinates": [126.9242732, 37.4929641]}, "properties": {"name": "보라매병원", "name_en": "Boramae Medical Center", "operator": "로템SRS", "ref": null}}, {"type": "Feature", "geometry": {"type": "Point", "coordinates": [126.9181903, 37.4952932]}, "properties": {"name": "보라매공원", "name_en": "Boramae Park", "operator": "로템SRS", "ref": null}}, {"type": "Feature", "geometry": {"type": "Point", "coordinates": [126.9204736, 37.5002811]}, "properties": {"name": "보라매", "name_en": "Boramae", "operator": "로템SRS", "ref": null}}, {"type": "Feature", "geometry": {"type": "Point", "coordinates": [126.9227236, 37.5059628]}, "properties": {"name": "서울지방병무청", "name_en": "Seoul Regional Office of Military Manpower", "operator": "로템SRS", "ref": null}}, {"type": "Feature", "geometry": {"type": "Point", "coordinates": [126.9251737, 37.5125806]}, "properties": {"name": "대방", "name_en": "Daebang", "operator": "로템SRS", "ref": "S402"}}, {"type": "Feature", "geometry": {"type": "Point", "coordinates": [126.928282, 37.517362]}, "properties": {"name": "샛강", "name_en": "Saetgang", "operator": "서울시메트로9호선", "ref": null}}, {"type": "Feature", "geometry": {"type": "Point", "coordinates": [126.9294177, 37.5173674]}, "properties": {"name": "샛강", "name_en": "Saetgang", "operator": "로템SRS", "ref": null}}, {"type": "Feature", "geometry": {"type": "Point", "coordinates": [126.8980769, 37.5773957]}, "properties": {"name": "디지털미디어시티", "name_en": "Digital Media City", "operator": "공항철도주식회사", "ref": "A04"}}, {"type": "Feature", "geometry": {"type": "Point", "coordinates": [126.9014558, 37.5761895]}, "properties": {"name": "디지털미디어시티", "name_en": "Digital Media City", "operator": "서울교통공사", "ref": null}}, {"type": "Feature", "geometry": {"type": "Point", "coordinates": [127.0634799, 37.6563651]}, "properties": {"name": "노원", "name_en": "Nowon", "operator": "서울교통공사", "ref": null}}, {"type": "Feature", "geometry": {"type": "Point", "coordinates": [126.9026845, 37.533531]}, "properties": {"name": "당산", "name_en": "Dangsan", "operator": "서울시메트로9호선", "ref": "913"}}, {"type": "Feature", "geometry": {"type": "Point", "coordinates": [126.9723599, 37.5560719]}, "properties": {"name": "서울역", "name_en": "Seoul (Station)", "operator": "서울교통공사", "ref": "133"}}, {"type": "Feature", "geometry": {"type": "Point", "coordinates": [126.9163515, 37.5175077]}, "properties": {"name": "신길", "name_en": "Singil", "operator": "서울교통공사", "ref": "525"}}, {"type": "Feature", "geometry": {"type": "Point", "coordinates": [126.8828796, 37.4804538]}, "properties": {"name": "가산디지털단지", "name_en": "Gasan Digital Complex", "operator": "서울교통공사", "ref": null}}, {"type": "Feature", "geometry": {"type": "Point", "coordinates": [127.073439, 37.6607649]}, "properties": {"name": "상계", "name_en": "Sanggye", "operator": "서울교통공사", "ref": null}}, {"type": "Feature", "geometry": {"type": "Point", "coordinates": [126.8939823, 37.5378593]}, "properties": {"name": "선유도", "name_en": "Seonyudo", "operator": "서울시메트로9호선", "ref": null}}, {"type": "Feature", "geometry": {"type": "Point", "coordinates": [126.8831758, 37.544211]}, "properties": {"name": "신목동", "name_en": "Sinmokdong", "operator": "서울시메트로9호선", "ref": null}}, {"type": "Feature", "geometry": {"type": "Point", "coordinates": [126.8753972, 37.5470335]}, "properties": {"name": "염창", "name_en": "Yeomchang", "operator": "서울시메트로9호선", "ref": null}}, {"type": "Feature", "geometry": {"type": "Point", "coordinates": [126.864574, 37.5511518]}, "properties": {"name": "등촌", "name_en": "Deungchon", "operator": "서울시메트로9호선", "ref": null}}, {"type": "Feature", "geometry": {"type": "Point", "coordinates": [126.8618185, 37.5575102]}, "properties": {"name": "증미", "name_en": "Jeungmi", "operator": "서울시메트로9호선", "ref": null}}, {"type": "Feature", "geometry": {"type": "Point", "coordinates": [126.8550997, 37.5611423]}, "properties": {"name": "가양", "name_en": "Gayang", "operator": "서울시메트로9호선", "ref": null}}, {"type": "Feature", "geometry": {"type": "Point", "coordinates": [126.8412958, 37.5684524]}, "properties": {"name": "양천향교", "name_en": "Yangcheon Hyanggyo", "operator": "서울시메트로9호선", "ref": null}}, {"type": "Feature", "geometry": {"type": "Point", "coordinates": [126.8165921, 37.5674973]}, "properties": {"name": "신방화", "name_en": "Sinbanghwa", "operator": "서울시메트로9호선", "ref": null}}, {"type": "Feature", "geometry": {"type": "Point", "coordinates": [126.8106016, 37.5636577]}, "properties": {"name": "공항시장", "name_en": "Airport Market", "operator": "서울시메트로9호선", "ref": null}}, {"type": "Feature", "geometry": {"type": "Point", "coordinates": [126.7974606, 37.5058364]}, "properties": {"name": "부천종합운동장", "name_en": "Bucheon Stadium", "operator": "한국철도공사", "ref": "S15"}}, {"type": "Feature", "geometry": {"type": "Point", "coordinates": [126.8048614, 37.5238457]}, "properties": {"name": "원종", "name_en": "Wonjong", "operator": "한국철도공사", "ref": "S14"}}, {"type": "Feature", "geometry": {"type": "Point", "coordinates": [126.9822371, 37.48678]}, "properties": {"name": "총신대입구(이수)", "name_en": "Chongshin Univ. (Isu)", "operator": "서울교통공사", "ref": null}}, {"type": "Feature", "geometry": {"type": "Point", "coordinates": [127.015659, 37.5723419]}, "properties": {"name": "동묘앞", "name_en": "Dongmyo", "operator": "서울교통공사", "ref": null}}, {"type": "Feature", "geometry": {"type": "Point", "coordinates": [127.0095288, 37.5704964]}, "properties": {"name": "동대문", "name_en": "Dongdaemun", "operator": "서울교통공사", "ref": null}}, {"type": "Feature", "geometry": {"type": "Point", "coordinates": [126.9902702, 37.5725401]}, "properties": {"name": "종로3가", "name_en": "Jongno 3(sam)-ga", "operator": "서울교통공사", "ref": null}}, {"type": "Feature", "geometry": {"type": "Point", "coordinates": [126.9919062, 37.5714989]}, "properties": {"name": "종로3가", "name_en": "Jongno 3(sam)-ga", "operator": "서울교통공사", "ref": null}}, {"type": "Feature", "geometry": {"type": "Point", "coordinates": [127.0133551, 37.6028286]}, "properties": {"name": "정릉", "name_en": "Jeongneung", "operator": "우이신설경전철운영(주)", "ref": "L10"}}, {"type": "Feature", "geometry": {"type": "Point", "coordinates": [127.0138408, 37.6201661]}, "properties": {"name": "솔샘", "name_en": "Solsaem", "operator": "우이신설경전철운영(주)", "ref": "L08"}}, {"type": "Feature", "geometry": {"type": "Point", "coordinates": [127.0204924, 37.6211991]}, "properties": {"name": "삼양사거리", "name_en": "Samyang Sageori", "operator": "우이신설경전철운영(주)", "ref": "L07"}}, {"type": "Feature", "geometry": {"type": "Point", "coordinates": [127.0181757, 37.6269234]}, "properties": {"name": "삼양", "name_en": "Samyang", "operator": "우이신설경전철운영(주)", "ref": "L06"}}, {"type": "Feature", "geometry": {"type": "Point", "coordinates": [127.0174887, 37.6340274]}, "properties": {"name": "화계", "name_en": "Hwagye", "operator": "우이신설경전철운영(주)", "ref": "L05"}}, {"type": "Feature", "geometry": {"type": "Point", "coordinates": [127.0165705, 37.6419736]}, "properties": {"name": "가오리", "name_en": "Gaori", "operator": "우이신설경전철운영(주)", "ref": "L04"}}, {"type": "Feature", "geometry": {"type": "Point", "coordinates": [127.0136861, 37.6493408]}, "properties": {"name": "4.19민주묘지", "name_en": "April 19th National Cemetery", "operator": "우이신설경전철운영(주)", "ref": "L03"}}, {"type": "Feature", "geometry": {"type": "Point", "coordinates": [127.0132485, 37.6560698]}, "properties": {"name": "솔밭공원", "name_en": "Solbat Park", "operator": "우이신설경전철운영(주)", "ref": "L02"}}, {"type": "Feature", "geometry": {"type": "Point", "coordinates": [127.0124123, 37.6633242]}, "properties": {"name": "북한산우이", "name_en": "Bukhansan Ui", "operator": "우이신설경전철운영(주)", "ref": "L01"}}, {"type": "Feature", "geometry": {"type": "Point", "coordinates": [127.0195135, 37.5850289]}, "properties": {"name": "보문", "name_en": "Bomun", "operator": "우이신설경전철운영(주)", "ref": null}}, {"type": "Feature", "geometry": {"type": "Point", "coordinates": [126.9747869, 37.5633295]}, "properties": {"name": "시청", "name_en": "City Hall", "operator": "서울교통공사", "ref": "201"}}, {"type": "Feature", "geometry": {"type": "Point", "coordinates": [126.9415727, 37.5136137]}, "properties": {"name": "노량진", "name_en": "Noryangjin", "operator": "서울시메트로9호선", "ref": null}}, {"type": "Feature", "geometry": {"type": "Point", "coordinates": [126.702435, 37.456812]}, "properties": {"name": "인천시청", "name_en": "Incheon City Hall", "operator": "인천교통공사", "ref": "I221"}}, {"type": "Feature", "geometry": {"type": "Point", "coordinates": [126.7107789, 37.4567338]}, "properties": {"name": "석천사거리", "name_en": "Seokcheon Sageori", "operator": "인천교통공사", "ref": "I222"}}, {"type": "Feature", "geometry": {"type": "Point", "coordinates": [126.7194799, 37.455858]}, "properties": {"name": "모래내시장", "name_en": "Moraenae Market", "operator": "인천교통공사", "ref": "I223"}}, {"type": "Feature", "geometry": {"type": "Point", "coordinates": [126.7318593, 37.4549681]}, "properties": {"name": "만수", "name_en": "Mansu", "operator": "인천교통공사", "ref": "I224"}}, {"type": "Feature", "geometry": {"type": "Point", "coordinates": [126.7368118, 37.4481646]}, "properties": {"name": "남동구청", "name_en": "Namdong-gu Office", "operator": "인천교통공사", "ref": "I225"}}, {"type": "Feature", "geometry": {"type": "Point", "coordinates": [126.7528149, 37.4485494]}, "properties": {"name": "인천대공원", "name_en": "Incheon Grand Park", "operator": "인천교통공사", "ref": "I226"}}, {"type": "Feature", "geometry": {"type": "Point", "coordinates": [126.7056466, 37.6317148]}, "properties": {"name": "걸포북변", "name_en": "Geolpo Bukbyeon", "operator": "김포골드라인SRS", "ref": "105"}}, {"type": "Feature", "geometry": {"type": "Point", "coordinates": [126.719765, 37.6202004]}, "properties": {"name": "사우", "name_en": "Sau", "operator": "김포골드라인SRS", "ref": "106"}}, {"type": "Feature", "geometry": {"type": "Point", "coordinates": [126.7324628, 37.612374]}, "properties": {"name": "풍무", "name_en": "Pungmu", "operator": "김포골드라인SRS", "ref": "107"}}, {"type": "Feature", "geometry": {"type": "Point", "coordinates": [126.7702118, 37.6012627]}, "properties": {"name": "고촌", "name_en": "Gochon", "operator": "김포골드라인SRS", "ref": "108"}}, {"type": "Feature", "geometry": {"type": "Point", "coordinates": [126.8019608, 37.5623275]}, "properties": {"name": "김포공항", "name_en": "Gimpo Int'l Airport", "operator": "김포골드라인SRS", "ref": "G109"}}, {"type": "Feature", "geometry": {"type": "Point", "coordinates": [126.8015843, 37.5619877]}, "properties": {"name": "김포공항", "name_en": "Gimpo Int'l Airport", "operator": "서울시메트로9호선", "ref": "902"}}, {"type": "Feature", "geometry": {"type": "Point", "coordinates": [126.8015857, 37.561745]}, "properties": {"name": "김포공항", "name_en": "Gimpo Int'l Airport", "operator": "공항철도주식회사", "ref": "A05"}}, {"type": "Feature", "geometry": {"type": "Point", "coordinates": [127.0175496, 37.5413731]}, "properties": {"name": "옥수", "name_en": "Oksu", "operator": "서울교통공사", "ref": null}}, {"type": "Feature", "geometry": {"type": "Point", "coordinates": [126.8916649, 37.5091331]}, "properties": {"name": "신도림", "name_en": "Sindorim", "operator": "한국철도공사", "ref": "140"}}, {"type": "Feature", "geometry": {"type": "Point", "coordinates": [127.1379117, 37.587406]}, "properties": {"name": "장자호수공원", "name_en": "Jangja Lake Park", "operator": "구리도시공사", "ref": null}}, {"type": "Feature", "geometry": {"type": "Point", "coordinates": [127.1408384, 37.6022712]}, "properties": {"name": "구리", "name_en": "Guri", "operator": "구리도시공사", "ref": "807"}}, {"type": "Feature", "geometry": {"type": "Point", "coordinates": [127.1381088, 37.6105143]}, "properties": {"name": "동구릉", "name_en": "Donggureung", "operator": "구리도시공사", "ref": "806"}}, {"type": "Feature", "geometry": {"type": "Point", "coordinates": [127.1497626, 37.6243286]}, "properties": {"name": "다산", "name_en": "Dasan", "operator": "남양주도시공사", "ref": "805"}}, {"type": "Feature", "geometry": {"type": "Point", "coordinates": [127.1278172, 37.6420348]}, "properties": {"name": "별내", "name_en": "Byeollae", "operator": "남양주도시공사", "ref": "804"}}, {"type": "Feature", "geometry": {"type": "Point", "coordinates": [126.7133006, 37.5922592]}, "properties": {"name": "아라", "name_en": "Ara", "operator": "인천교통공사", "ref": "I109"}}, {"type": "Feature", "geometry": {"type": "Point", "coordinates": [127.04741, 37.5472351]}, "properties": {"name": "뚝섬", "name_en": "Ttukseom", "operator": "서울교통공사", "ref": "210"}}, {"type": "Feature", "geometry": {"type": "Point", "coordinates": [127.0071354, 37.5642774]}, "properties": {"name": "동대문역사문화공원", "name_en": "Dongdaemun History & Culture Park Station (DDP)", "operator": "서울교통공사", "ref": "536"}}, {"type": "Feature", "geometry": {"type": "Point", "coordinates": [127.0081569, 37.5658762]}, "properties": {"name": "동대문역사문화공원", "name_en": "Dongdaemun History & Culture Park Station (DDP)", "operator": "서울교통공사", "ref": "205"}}, {"type": "Feature", "geometry": {"type": "Point", "coordinates": [127.0762089, 37.511406]}, "properties": {"name": "종합운동장", "name_en": "Sports Complex", "operator": "서울교통공사", "ref": "218;930"}}, {"type": "Feature", "geometry": {"type": "Point", "coordinates": [126.9234474, 37.5566261]}, "properties": {"name": "홍대입구", "name_en": "Hongik Univ.", "operator": "서울교통공사", "ref": "239"}}]}